      2.10          N: GNSS NAV DATA                        RINEX VERSION / TYPE
fic2rin                                 06/28/2021 00:17:13 PGM / RUN BY / DATE
                                                            END OF HEADER
16 21  6 27 14  0  0.0-3.479849547148e-04-6.139089236967e-12 0.000000000000e+00
    7.300000000000e+01 3.812500000000e+01 4.105885312318e-09-3.124991315860e+00
    1.847743988037e-06 1.217592519242e-02 1.098588109016e-05 5.153719995499e+03
    5.040000000000e+04-9.685754776001e-08 2.072590885787e-01-1.713633537292e-07
    9.736501366878e-01 1.760937500000e+02 6.785559983410e-01-7.481740215940e-09
   -3.796586714504e-10 1.000000000000e+00 2.164000000000e+03 0.000000000000e+00
    2.400000000000e+00 0.000000000000e+00-1.024454832077e-08 7.300000000000e+01
    4.320000000000e+04 4.000000000000e+00
25 21  6 27 14  0  0.0 1.634326763451e-04 6.821210263297e-12 0.000000000000e+00
    3.800000000000e+01 2.865625000000e+01 4.504830501415e-09-1.550757119876e+00
    1.572072505951e-06 9.841893916018e-03 1.020915806293e-05 5.153609352112e+03
    5.040000000000e+04 1.899898052216e-07 1.147119196976e-01-3.725290298462e-08
    9.609414849900e-01 1.813750000000e+02 9.705857475579e-01-7.768180718765e-09
   -4.135886561991e-10 1.000000000000e+00 2.164000000000e+03 0.000000000000e+00
    2.400000000000e+00 0.000000000000e+00 5.587935447693e-09 3.800000000000e+01
    4.320000000000e+04 4.000000000000e+00
15 21  6 27 14  0  0.0-1.394827850163e-04 2.614797267597e-12 0.000000000000e+00
    8.400000000000e+01-3.284375000000e+01 5.040924260444e-09 1.358481579125e+00
   -1.650303602219e-06 1.324707793538e-02 1.075118780136e-05 5.153641246796e+03
    5.040000000000e+04-2.365559339523e-07-2.094652732020e+00 3.166496753693e-08
    9.289019010870e-01 1.600312500000e+02 9.931210233398e-01-8.318203629427e-09
    4.953777773300e-10 1.000000000000e+00 2.164000000000e+03 0.000000000000e+00
    2.400000000000e+00 0.000000000000e+00-1.071020960808e-08 8.400000000000e+01
    4.320000000000e+04 4.000000000000e+00
19 21  6 27 14  0  0.0 1.888442784548e-05 5.002220859751e-12 0.000000000000e+00
    4.500000000000e+01 1.475000000000e+02 4.034096607745e-09-1.573695198447e+00
    7.789582014084e-06 9.325742837973e-03 5.900859832764e-06 5.153646194458e+03
    5.040000000000e+04-1.266598701477e-07 1.269802580694e+00 1.695007085800e-07
    9.803151826794e-01 2.803125000000e+02 1.871558141863e+00-7.971760627257e-09
    2.007226466182e-10 1.000000000000e+00 2.164000000000e+03 0.000000000000e+00
    2.400000000000e+00 0.000000000000e+00-1.536682248116e-08 4.500000000000e+01
    4.320000000000e+04 4.000000000000e+00
32 21  6 27 14  0  0.0 1.680850982666e-05-1.591615728103e-12 0.000000000000e+00
    1.040000000000e+02-1.262500000000e+01 4.318037006431e-09 2.962688739992e+00
   -5.699694156647e-07 5.036446265876e-03 9.788200259209e-06 5.153686990738e+03
    5.040000000000e+04 4.842877388000e-08-1.984559603113e+00-5.774199962616e-08
    9.570887556398e-01 1.880625000000e+02-2.359156843712e+00-7.723893159725e-09
    6.014536243862e-10 1.000000000000e+00 2.164000000000e+03 0.000000000000e+00
    2.400000000000e+00 0.000000000000e+00 4.656612873077e-10 1.040000000000e+02
    4.320000000000e+04 4.000000000000e+00
21 21  6 27 14  0  0.0 1.277304254472e-04 2.387423592154e-12 0.000000000000e+00
    1.020000000000e+02 8.125000000000e-01 4.811986152824e-09 2.397665752723e+00
    2.216547727585e-07 2.401953318622e-02-4.656612873077e-07 5.153676622391e+03
    5.040000000000e+04 4.246830940247e-07 2.137476694918e+00 3.725290298462e-09
    9.574055359206e-01 3.788750000000e+02-1.121209114014e+00-8.228914195878e-09
   -3.300137463972e-10 1.000000000000e+00 2.164000000000e+03 0.000000000000e+00
    2.400000000000e+00 0.000000000000e+00-1.024454832077e-08 1.020000000000e+02
    4.320000000000e+04 4.000000000000e+00
26 21  6 27 14  0  0.0 1.036394387484e-04 4.774847184308e-12 0.000000000000e+00
    5.300000000000e+01 1.606250000000e+01 4.942348725805e-09-2.230718880087e+00
    5.885958671570e-07 5.911308689974e-03 1.016631722450e-05 5.153581966400e+03
    5.040000000000e+04-2.607703208923e-08 7.209999799718e-02-1.285225152969e-07
    9.418425935359e-01 1.754062500000e+02 3.029554548764e-01-8.048192382375e-09
   -3.860875106660e-10 1.000000000000e+00 2.164000000000e+03 0.000000000000e+00
    2.400000000000e+00 0.000000000000e+00 6.984919309616e-09 5.300000000000e+01
    4.320000000000e+04 4.000000000000e+00
24 21  6 27 14  0  0.0 1.511843875051e-04 1.637090463191e-11 0.000000000000e+00
    9.000000000000e+01 3.218750000000e+00 5.562731710104e-09 4.014981696789e-01
    1.154839992523e-07 1.117815880571e-02 5.491077899933e-06 5.153713798523e+03
    5.040000000000e+04-5.587935447693e-08-1.000729619308e+00 1.918524503708e-07
    9.346484247042e-01 2.626562500000e+02 7.427046342749e-01-8.594286557960e-09
    3.214419607765e-11 1.000000000000e+00 2.164000000000e+03 0.000000000000e+00
    2.400000000000e+00 0.000000000000e+00 2.793967723846e-09 9.000000000000e+01
    4.320000000000e+04 4.000000000000e+00
20 21  6 27 14  0  0.0 5.207527428865e-04-3.410605131648e-13 0.000000000000e+00
    5.300000000000e+01-1.460937500000e+02 4.886989277005e-09 8.501162650633e-01
   -7.543712854385e-06 6.093016010709e-03 6.584450602531e-06 5.151750677109e+03
    5.040000000000e+04 1.639127731323e-07 3.112277741443e+00 1.471489667892e-07
    9.390328604078e-01 2.415000000000e+02 3.041154280763e+00-8.383206337050e-09
   -2.617966191657e-10 1.000000000000e+00 2.164000000000e+03 0.000000000000e+00
    2.400000000000e+00 0.000000000000e+00-8.381903171539e-09 5.300000000000e+01
    4.320000000000e+04 4.000000000000e+00
23 21  6 27 14  0  0.0 9.192433208227e-05-4.661160346586e-12 0.000000000000e+00
    1.090000000000e+02-1.305312500000e+02 4.124814672231e-09-3.581287153499e-01
   -6.804242730141e-06 1.334263826720e-03 8.191913366318e-06 5.153662416458e+03
    5.040000000000e+04 7.078051567078e-08-3.050544011677e+00-1.620501279831e-07
    9.650033340909e-01 2.297812500000e+02 2.617284171568e+00-7.862113202858e-09
   -2.385813664430e-10 1.000000000000e+00 2.164000000000e+03 0.000000000000e+00
    2.400000000000e+00 0.000000000000e+00-8.381903171539e-09 6.210000000000e+02
    4.320000000000e+04 4.000000000000e+00
18 21  6 27 14  0  0.0 3.445367328823e-04-2.160049916711e-12 0.000000000000e+00
    9.500000000000e+01-2.150000000000e+01 4.606977613395e-09 3.784279954564e-01
   -1.402571797371e-06 1.583042554557e-03 7.133930921555e-07 5.153657478333e+03
    5.040000000000e+04-3.352761268616e-08 2.233362500330e+00 6.332993507385e-08
    9.683883480503e-01 3.678750000000e+02 2.880405260989e+00-8.436779997180e-09
   -2.225092684042e-10 1.000000000000e+00 2.164000000000e+03 0.000000000000e+00
    2.400000000000e+00 0.000000000000e+00-8.381903171539e-09 3.510000000000e+02
    4.320000000000e+04 4.000000000000e+00
28 21  6 27 14  0  0.0 5.475650541484e-04-6.480149750132e-12 0.000000000000e+00
    6.300000000000e+01 4.921875000000e+01 4.060883437809e-09 2.791551423368e+00
    2.399086952209e-06 1.747962483205e-02 1.093558967113e-05 5.153733076096e+03
    5.040000000000e+04 3.743916749954e-07 2.108172388928e-01-1.490116119385e-08
    9.727473187389e-01 1.703125000000e+02-1.345538617690e+00-7.379593103959e-09
   -4.957349350642e-10 1.000000000000e+00 2.164000000000e+03 0.000000000000e+00
    2.400000000000e+00 6.300000000000e+01-1.117587089539e-08 6.300000000000e+01
    4.320000000000e+04 4.000000000000e+00
 2 21  6 27 16  0  0.0-6.155278533697e-04-2.842170943040e-12 0.000000000000e+00
    5.300000000000e+01-6.656250000000e+00 4.820200780710e-09 1.367494895366e+00
   -8.903443813324e-07 2.018917864189e-02 4.898756742477e-07 5.153702287674e+03
    5.760000000000e+04-7.823109626770e-08 2.137535115089e+00-5.792826414108e-07
    9.632389641864e-01 3.731562500000e+02-1.510303188133e+00-8.582143194998e-09
   -3.893019302737e-11 1.000000000000e+00 2.164000000000e+03 0.000000000000e+00
    2.400000000000e+00 0.000000000000e+00-1.769512891769e-08 5.300000000000e+01
    5.040000000000e+04 4.000000000000e+00
 1 21  6 27 16  0  0.0 6.454866379499e-04-1.159605744760e-11 0.000000000000e+00
    5.000000000000e+01-1.471875000000e+01 4.369110562421e-09 1.080278458231e+00
   -6.221234798431e-07 1.103347854223e-02 1.545995473862e-06 5.153681615829e+03
    5.760000000000e+04-7.078051567078e-08 2.222017449203e+00 1.862645149231e-07
    9.846567036812e-01 3.638437500000e+02 8.658686641168e-01-8.407850220710e-09
   -1.671498196038e-10 1.000000000000e+00 2.164000000000e+03 0.000000000000e+00
    2.400000000000e+00 0.000000000000e+00 5.122274160385e-09 5.000000000000e+01
    5.040000000000e+04 4.000000000000e+00
 5 21  6 27 16  0  0.0-4.620850086212e-05-1.136868377216e-12 0.000000000000e+00
    1.700000000000e+01-1.450312500000e+02 4.327680265254e-09-2.544201045809e+00
   -7.454305887222e-06 6.150791305117e-03 8.391216397285e-06 5.153910039902e+03
    5.760000000000e+04 7.823109626770e-08-3.061344899703e+00-1.303851604462e-08
    9.570952539219e-01 2.140312500000e+02 9.175757435471e-01-7.958188633357e-09
   -1.917937032633e-10 1.000000000000e+00 2.164000000000e+03 0.000000000000e+00
    2.400000000000e+00 0.000000000000e+00-1.117587089539e-08 1.700000000000e+01
    5.040000000000e+04 4.000000000000e+00
 3 21  6 27 16  0  0.0-2.039917744696e-04-1.091393642128e-11 0.000000000000e+00
    4.400000000000e+01-1.141875000000e+02 4.133386457851e-09 4.344256658584e-02
   -5.980953574181e-06 3.636102541350e-03 7.903203368187e-06 5.153579395294e+03
    5.760000000000e+04-2.235174179077e-08-3.024100022133e+00 3.352761268616e-08
    9.701299885966e-01 2.294375000000e+02 8.710224396608e-01-7.949616847736e-09
   -2.010798043524e-10 1.000000000000e+00 2.164000000000e+03 0.000000000000e+00
    2.400000000000e+00 0.000000000000e+00 1.862645149231e-09 4.400000000000e+01
    5.040000000000e+04 4.000000000000e+00
